OPS 3662 (VELA 3)        Age = -0.39
1 00836U 64040A   21364.14304296  .00000077  00000-0  00000-0 0  9990
2 00836  31.7907 167.8294 7832419 308.1094 359.5109  0.23921690  7092
OPS 6577 (VELA 5)        Age = -0.97
1 01458U 65058A   21364.71898223 -.00001446  00000-0  00000-0 0  9994
2 01458  20.8378   9.9160 4947156 273.5047 359.4625  0.21346007  8574
TITAN 3C TRANSTAGE R/B   Age = -0.08
1 02770U 67040F   21363.83214321 -.00000066  00000-0  00000-0 0  9995
2 02770  26.6106 317.2500 8484280 204.4727 359.4993  0.50954372 15077
SOLRAD 11A/B AKM         Age = -0.50
1 08753U 76023H   21364.25512260 -.00000778  00000-0  00000-0 0  9993
2 08753  25.4276 326.7676 0401492  61.3172 358.1864  0.18712977  2366
GEOTAIL                  Age = -5.49
1 22049U 92044A   22004.24166879 -.00000946  00000-0  00000-0 0  9997
2 22049  43.1679  39.4547 4998082 191.7562   0.5585  0.19209963 12647
CXO                      Age = -0.05
1 25867U 99040B   21363.80384934  .00000433  00000-0  00000-0 0  9994
2 25867  50.0503 246.0023 8607313 228.8766   0.1781  0.37808964 11157
CLUSTER II-FM7 (SAMBA)   Age = -0.49
1 26410U 00041A   21364.24041910  .00000649  00000-0  00000-0 0  9994
2 26410 133.4856 346.1842 5273823 196.0924 359.5307  0.44242600 13068
CLUSTER II-FM6 (SALSA)   Age = -0.48
1 26411U 00041B   21364.23265234  .00000871  00000-0  00000+0 0  9997
2 26411 134.9361 348.7569 6861855 200.6487 359.5184  0.44226986 24137
CLUSTER II-FM5 (RUMBA)   Age = -0.48
1 26463U 00045A   21364.23616717  .00000904  00000-0  00000-0 0  9992
2 26463 138.5384 348.9365 6394252 201.2398 359.4922  0.44225965 13004
CLUSTER II-FM8 (TANGO)   Age = -0.49
1 26464U 00045B   21364.23925897  .00000649  00000-0  00000-0 0  9991
2 26464 133.4747 346.1754 5276017 196.0745 359.5454  0.44216949 13078
